{
    "links": {
        "self": "http://www.neowsapp.com/rest/v1/neo/3275976?api_key=iIulBulltgU6a56xZRHN4H3l9WmuAYTsLGpBGhQ2"
    },
    "id": "3275976",
    "neo_reference_id": "3275976",
    "name": "(2005 GP33)",
    "designation": "2005 GP33",
    "nasa_jpl_url": "http://ssd.jpl.nasa.gov/sbdb.cgi?sstr=3275976",
    "absolute_magnitude_h": 24.3,
    "estimated_diameter": {
        "kilometers": {
            "estimated_diameter_min": 0.0366906138,
            "estimated_diameter_max": 0.0820427065
        },
        "meters": {
            "estimated_diameter_min": 36.6906137531,
            "estimated_diameter_max": 82.0427064882
        },
        "miles": {
            "estimated_diameter_min": 0.0227984834,
            "estimated_diameter_max": 0.0509789586
        },
        "feet": {
            "estimated_diameter_min": 120.3760332259,
            "estimated_diameter_max": 269.1689931548
        }
    },
    "is_potentially_hazardous_asteroid": false,
    "close_approach_data": [
        {
            "close_approach_date": "2005-04-01",
            "close_approach_date_full": "2005-Apr-01 05:58",
            "epoch_date_close_approach": 1112335080000,
            "relative_velocity": {
                "kilometers_per_second": "9.6261829259",
                "kilometers_per_hour": "34654.258533323",
                "miles_per_hour": "21532.8085869973"
            },
            "miss_distance": {
                "astronomical": "0.0582616938",
                "lunar": "22.6637988882",
                "kilometers": "8715825.295072206",
                "miles": "5415762.7061042028"
            },
            "orbiting_body": "Earth"
        },
        {
            "close_approach_date": "2010-10-06",
            "close_approach_date_full": "2010-Oct-06 14:27",
            "epoch_date_close_approach": 1286375220000,
            "relative_velocity": {
                "kilometers_per_second": "5.9626179586",
                "kilometers_per_hour": "21465.4246509841",
                "miles_per_hour": "13337.7801116073"
            },
            "miss_distance": {
                "astronomical": "1.7221545028",
                "lunar": "669.9181015892",
                "kilometers": "257630645.429789036",
                "miles": "160084259.8643032568"
            },
            "orbiting_body": "Juptr"
        }
    ],
    "orbital_data": {
        "orbit_id": "10",
        "orbit_determination_date": "2017-04-06 09:11:09",
        "first_observation_date": "2005-04-06",
        "last_observation_date": "2005-04-18",
        "data_arc_in_days": 12,
        "observations_used": 33,
        "orbit_uncertainty": "8",
        "minimum_orbit_intersection": ".050946",
        "jupiter_tisserand_invariant": "3.246",
        "epoch_osculation": "2453470.5",
        "eccentricity": ".5840975487192155",
        "semi_major_axis": "2.422753729851388",
        "inclination": "7.383759043912515",
        "ascending_node_longitude": "22.50445310049775",
        "orbital_period": "1377.407150300613",
        "perihelion_distance": "1.007629215094856",
        "perihelion_argument": "142.5411626155934",
        "aphelion_distance": "3.837878244607921",
        "perihelion_time": "2453440.886449082244",
        "mean_anomaly": "7.739816312167006",
        "mean_motion": ".261360629586852",
        "equinox": "J2000",
        "orbit_class": {
            "orbit_class_type": "APO",
            "orbit_class_description": "Near-Earth asteroid orbits which cross the Earth’s orbit similar to that of 1862 Apollo",
            "orbit_class_range": "a (semi-major axis) > 1.0 AU; q (perihelion) < 1.017 AU"
        }
    },
    "is_sentry_object": false
}